{"type": "FeatureCollection", "features": [ {"type": "Feature", "properties": {"norad_id": 31362, "name": "FENGYUN 1C DEB", "group": "fengyun-1c-debris", "lat": -6.5518043192705875, "lon": -15.264494214254842, "alt_km": 838.9689459135598, "timestamp": "2025-12-15T10:55:21.425260+00:00", "meta": {"OBJECT_NAME": "FENGYUN 1C DEB", "OBJECT_ID": "1999-025BRS", "EPOCH": "2025-12-12T05:01:10.984224", "MEAN_MOTION": 14.17378124, "ECCENTRICITY": 0.00192248, "INCLINATION": 98.6526, "RA_OF_ASC_NODE": 340.5737, "ARG_OF_PERICENTER": 97.1376, "MEAN_ANOMALY": 263.1986, "EPHEMERIS_TYPE": 0, "CLASSIFICATION_TYPE": "U", "NORAD_CAT_ID": 31362, "ELEMENT_SET_NO": 999, "REV_AT_EPOCH": 96568, "BSTAR": 0.00024895847, "MEAN_MOTION_DOT": 4.62e-06, "MEAN_MOTION_DDOT": 0}, "tle": {"line1": "1 31362U 99025BRS 25346.20915491  .00000462  00000+0  24896-3 0  9994", "line2": "2 31362  98.6526 340.5737 0019224  97.1376 263.1986 14.17378124965680"}}, "geometry": {"type": "Point", "coordinates": [-15.264494214254842, -6.5518043192705875]}}, {"type": "Feature", "properties": {"norad_id": 31364, "name": "FENGYUN 1C DEB", "group": "fengyun-1c-debris", "lat": -12.895632533060418, "lon": 111.34071692424327, "alt_km": 908.6110145815501, "timestamp": "2025-12-15T10:55:21.425271+00:00", "meta": {"OBJECT_NAME": "FENGYUN 1C DEB", "OBJECT_ID": "1999-025BRU", "EPOCH": "2025-12-14T06:07:43.707072", "MEAN_MOTION": 14.14680617, "ECCENTRICITY": 0.00938335, "INCLINATION": 99.2607, "RA_OF_ASC_NODE": 107.956, "ARG_OF_PERICENTER": 144.5583, "MEAN_ANOMALY": 216.1872, "EPHEMERIS_TYPE": 0, "CLASSIFICATION_TYPE": "U", "NORAD_CAT_ID": 31364, "ELEMENT_SET_NO": 999, "REV_AT_EPOCH": 94898, "BSTAR": 0.0034203771, "MEAN_MOTION_DOT": 6.825e-05, "MEAN_MOTION_DDOT": 0}, "tle": {"line1": "1 31364U 99025BRU 25348.25536698  .00006825  00000+0  34204-2 0  9993", "line2": "2 31364  99.2607 107.9560 0093833 144.5583 216.1872 14.14680617948989"}}, "geometry": {"type": "Point", "coordinates": [111.34071692424327, -12.895632533060418]}}, {"type": "Feature", "properties": {"norad_id": 31365, "name": "FENGYUN 1C DEB", "group": "fengyun-1c-debris", "lat": -19.46276396082299, "lon": -108.5470110310395, "alt_km": 727.7339086710299, "timestamp": "2025-12-15T10:55:21.425280+00:00", "meta": {"OBJECT_NAME": "FENGYUN 1C DEB", "OBJECT_ID": "1999-025BRV", "EPOCH": "2025-12-13T04:42:12.560544", "MEAN_MOTION": 14.41856654, "ECCENTRICITY": 0.00424488, "INCLINATION": 98.6743, "RA_OF_ASC_NODE": 72.251, "ARG_OF_PERICENTER": 218.5606, "MEAN_ANOMALY": 141.2548, "EPHEMERIS_TYPE": 0, "CLASSIFICATION_TYPE": "U", "NORAD_CAT_ID": 31365, "ELEMENT_SET_NO": 999, "REV_AT_EPOCH": 96635, "BSTAR": 0.0030897705, "MEAN_MOTION_DOT": 0.00010184, "MEAN_MOTION_DDOT": 0}, "tle": {"line1": "1 31365U 99025BRV 25347.19597871  .00010184  00000+0  30898-2 0  9994", "line2": "2 31365  98.6743  72.2510 0042448 218.5606 141.2548 14.41856654966352"}}, "geometry": {"type": "Point", "coordinates": [-108.5470110310395, -19.46276396082299]}}, {"type": "Feature", "properties": {"norad_id": 31367, "name": "FENGYUN 1C DEB", "group": "fengyun-1c-debris", "lat": 22.392202854711886, "lon": 67.44750220918482, "alt_km": 793.814761163364, "timestamp": "2025-12-15T10:55:21.425290+00:00", "meta": {"OBJECT_NAME": "FENGYUN 1C DEB", "OBJECT_ID": "1999-025BRX", "EPOCH": "2025-12-14T22:52:27.154848", "MEAN_MOTION": 14.47499987, "ECCENTRICITY": 0.00993257, "INCLINATION": 98.7457, "RA_OF_ASC_NODE": 243.2923, "ARG_OF_PERICENTER": 9.7825, "MEAN_ANOMALY": 52.3497, "EPHEMERIS_TYPE": 0, "CLASSIFICATION_TYPE": "U", "NORAD_CAT_ID": 31367, "ELEMENT_SET_NO": 999, "REV_AT_EPOCH": 98498, "BSTAR": 0.00048124038, "MEAN_MOTION_DOT": 1.83e-05, "MEAN_MOTION_DDOT": 0}, "tle": {"line1": "1 31367U 99025BRX 25348.95309207  .00001830  00000+0  48124-3 0  9995", "line2": "2 31367  98.7457 243.2923 0099325   9.7825  52.3497 14.47499987984986"}}, "geometry": {"type": "Point", "coordinates": [67.44750220918482, 22.392202854711886]}}, {"type": "Feature", "properties": {"norad_id": 31369, "name": "FENGYUN 1C DEB", "group": "fengyun-1c-debris", "lat": -66.12823233084647, "lon": -9.298637637411629, "alt_km": 795.366844387453, "timestamp": "2025-12-15T10:55:21.425301+00:00", "meta": {"OBJECT_NAME": "FENGYUN 1C DEB", "OBJECT_ID": "1999-025BRZ", "EPOCH": "2025-12-13T17:46:59.452032", "MEAN_MOTION": 14.19412375, "ECCENTRICITY": 0.005436, "INCLINATION": 98.6192, "RA_OF_ASC_NODE": 328.9902, "ARG_OF_PERICENTER": 296.6832, "MEAN_ANOMALY": 241.5666, "EPHEMERIS_TYPE": 0, "CLASSIFICATION_TYPE": "U", "NORAD_CAT_ID": 31369, "ELEMENT_SET_NO": 999, "REV_AT_EPOCH": 64341, "BSTAR": 0.00041020724, "MEAN_MOTION_DOT": 8.32e-06, "MEAN_MOTION_DDOT": 0}, "tle": {"line1": "1 31369U 99025BRZ 25347.74096588  .00000832  00000+0  41021-3 0  9998", "line2": "2 31369  98.6192 328.9902 0054360 296.6832 241.5666 14.19412375643411"}}, "geometry": {"type": "Point", "coordinates": [-9.298637637411629, -66.12823233084647]}}, {"type": "Feature", "properties": {"norad_id": 31370, "name": "FENGYUN 1C DEB", "group": "fengyun-1c-debris", "lat": -27.495589889951123, "lon": -6.008748129250283, "alt_km": 848.2202114836346, "timestamp": "2025-12-15T10:55:21.425311+00:00", "meta": {"OBJECT_NAME": "FENGYUN 1C DEB", "OBJECT_ID": "1999-025BSA", "EPOCH": "2025-12-14T11:12:21.611520", "MEAN_MOTION": 14.09709611, "ECCENTRICITY": 0.00332743, "INCLINATION": 98.7542, "RA_OF_ASC_NODE": 348.4304, "ARG_OF_PERICENTER": 292.7284, "MEAN_ANOMALY": 67.0371, "EPHEMERIS_TYPE": 0, "CLASSIFICATION_TYPE": "U", "NORAD_CAT_ID": 31370, "ELEMENT_SET_NO": 999, "REV_AT_EPOCH": 96318, "BSTAR": 0.00042202718, "MEAN_MOTION_DOT": 7.01e-06, "MEAN_MOTION_DDOT": 0}, "tle": {"line1": "1 31370U 99025BSA 25348.46691680  .00000701  00000+0  42203-3 0  9992", "line2": "2 31370  98.7542 348.4304 0033274 292.7284  67.0371 14.09709611963189"}}, "geometry": {"type": "Point", "coordinates": [-6.008748129250283, -27.495589889951123]}}, {"type": "Feature", "properties": {"norad_id": 31371, "name": "FENGYUN 1C DEB", "group": "fengyun-1c-debris", "lat": -2.984563430186097, "lon": -158.10820034095008, "alt_km": 849.7024467892288, "timestamp": "2025-12-15T10:55:21.425321+00:00", "meta": {"OBJECT_NAME": "FENGYUN 1C DEB", "OBJECT_ID": "1999-025BSB", "EPOCH": "2025-12-14T01:33:44.976960", "MEAN_MOTION": 14.04512103, "ECCENTRICITY": 0.00777769, "INCLINATION": 98.7663, "RA_OF_ASC_NODE": 21.0107, "ARG_OF_PERICENTER": 242.9147, "MEAN_ANOMALY": 116.407, "EPHEMERIS_TYPE": 0, "CLASSIFICATION_TYPE": "U", "NORAD_CAT_ID": 31371, "ELEMENT_SET_NO": 999, "REV_AT_EPOCH": 95765, "BSTAR": 0.0008776546, "MEAN_MOTION_DOT": 1.396e-05, "MEAN_MOTION_DDOT": 0}, "tle": {"line1": "1 31371U 99025BSB 25348.06510390  .00001396  00000+0  87765-3 0  9990", "line2": "2 31371  98.7663  21.0107 0077776 242.9147 116.4070 14.04512103957652"}}, "geometry": {"type": "Point", "coordinates": [-158.10820034095008, -2.984563430186097]}}, {"type": "Feature", "properties": {"norad_id": 31372, "name": "FENGYUN 1C DEB", "group": "fengyun-1c-debris", "lat": 39.17044753916915, "lon": 168.4233669490627, "alt_km": 792.9246291576619, "timestamp": "2025-12-15T10:55:21.425331+00:00", "meta": {"OBJECT_NAME": "FENGYUN 1C DEB", "OBJECT_ID": "1999-025BSC", "EPOCH": "2025-12-14T22:29:17.932704", "MEAN_MOTION": 14.26555586, "ECCENTRICITY": 0.00339214, "INCLINATION": 99.3744, "RA_OF_ASC_NODE": 340.1342, "ARG_OF_PERICENTER": 68.8048, "MEAN_ANOMALY": 291.6749, "EPHEMERIS_TYPE": 0, "CLASSIFICATION_TYPE": "U", "NORAD_CAT_ID": 31372, "ELEMENT_SET_NO": 999, "REV_AT_EPOCH": 95882, "BSTAR": 0.0012170154, "MEAN_MOTION_DOT": 2.905e-05, "MEAN_MOTION_DDOT": 0}, "tle": {"line1": "1 31372U 99025BSC 25348.93701311  .00002905  00000+0  12170-2 0  9996", "line2": "2 31372  99.3744 340.1342 0033921  68.8048 291.6749 14.26555586958820"}}, "geometry": {"type": "Point", "coordinates": [168.4233669490627, 39.17044753916915]}}, {"type": "Feature", "properties": {"norad_id": 31376, "name": "FENGYUN 1C DEB", "group": "fengyun-1c-debris", "lat": 25.30639290960271, "lon": -98.36530200799984, "alt_km": 706.3939076727693, "timestamp": "2025-12-15T10:55:21.425341+00:00", "meta": {"OBJECT_NAME": "FENGYUN 1C DEB", "OBJECT_ID": "1999-025BSG", "EPOCH": "2025-12-13T17:44:06.124992", "MEAN_MOTION": 14.61743763, "ECCENTRICITY": 0.00488616, "INCLINATION": 98.8328, "RA_OF_ASC_NODE": 264.0189, "ARG_OF_PERICENTER": 265.8093, "MEAN_ANOMALY": 93.7521, "EPHEMERIS_TYPE": 0, "CLASSIFICATION_TYPE": "U", "NORAD_CAT_ID": 31376, "ELEMENT_SET_NO": 999, "REV_AT_EPOCH": 98157, "BSTAR": 0.00245008, "MEAN_MOTION_DOT": 0.00012388, "MEAN_MOTION_DDOT": 0}, "tle": {"line1": "1 31376U 99025BSG 25347.73895978  .00012388  00000+0  24501-2 0  9997", "line2": "2 31376  98.8328 264.0189 0048861 265.8093  93.7521 14.61743763981579"}}, "geometry": {"type": "Point", "coordinates": [-98.36530200799984, 25.30639290960271]}}, {"type": "Feature", "properties": {"norad_id": 31378, "name": "FENGYUN 1C DEB", "group": "fengyun-1c-debris", "lat": -64.41830806749248, "lon": -97.85958932189585, "alt_km": 995.1012019912423, "timestamp": "2025-12-15T10:55:21.425351+00:00", "meta": {"OBJECT_NAME": "FENGYUN 1C DEB", "OBJECT_ID": "1999-025BSJ", "EPOCH": "2025-12-11T21:59:42.993312", "MEAN_MOTION": 13.80074441, "ECCENTRICITY": 0.0168447, "INCLINATION": 100.7553, "RA_OF_ASC_NODE": 234.7301, "ARG_OF_PERICENTER": 199.9707, "MEAN_ANOMALY": 159.4794, "EPHEMERIS_TYPE": 0, "CLASSIFICATION_TYPE": "U", "NORAD_CAT_ID": 31378, "ELEMENT_SET_NO": 999, "REV_AT_EPOCH": 94212, "BSTAR": 0.0009758, "MEAN_MOTION_DOT": 1.073e-05, "MEAN_MOTION_DDOT": 0}, "tle": {"line1": "1 31378U 99025BSJ 25345.91646983  .00001073  00000+0  97580-3 0  9994", "line2": "2 31378 100.7553 234.7301 0168447 199.9707 159.4794 13.80074441942126"}}, "geometry": {"type": "Point", "coordinates": [-97.85958932189585, -64.41830806749248]}}]}